PROBA-1                 
1 26958U 01049B   26183.27023905  .00001590  00000+0  10545-3 0  9994
2 26958  97.9596 192.3301 0056652  72.5346 288.2062 15.07561927345897
CUTE-1 (CO-55)          
1 27844U 03031E   26182.99996152  .00000303  00000+0  15002-3 0  9997
2 27844  98.6736 191.3725 0010408 137.1021 223.0971 14.24344824193780
CUBESAT XI-IV (CO-57)   
1 27848U 03031J   26183.27698888  .00000271  00000+0  13794-3 0  9998
2 27848  98.6769 191.3466 0009960 153.7682 206.4003 14.23628936193521
APRIZESAT 4             
1 35684U 09041D   26183.15936325  .00000764  00000+0  97714-4 0  9992
2 35684  98.1409 258.7781 0041886 273.0980  86.5440 14.83899214913585
APRIZESAT 3             
1 35686U 09041F   26182.94495552  .00001008  00000+0  91794-4 0  9996
2 35686  98.2079 336.8773 0062003  19.3739 340.9818 14.96280631918589
PROBA-2                 
1 36037U 09059B   26183.23352419  .00000216  00000+0  60856-4 0  9998
2 36037  98.2453   6.3779 0012214 230.7581 129.2533 14.54869023883714
APRIZESAT 5             
1 37792U 11044E   26183.07272637  .00001117  00000+0  14825-3 0  9994
2 37792  98.2450 116.5353 0051185 316.0244  43.6900 14.81107413800990
APRIZESAT 6             
1 37793U 11044F   26183.26544734  .00000968  00000+0  14328-3 0  9997
2 37793  98.2351  94.0723 0044017  39.1413  78.5769 14.76940192799371
PROBA-V                 
1 39159U 13021A   26183.23035909  .00000123  00000+0  72164-4 0  9994
2 39159  98.3593 161.0949 0005437  89.1236 271.0567 14.23600842683256
APRIZESAT 7             
1 39416U 13066A   26183.11386453  .00001052  00000+0  10924-3 0  9996
2 39416  97.7716 136.1198 0036303 159.4843 200.7843 14.91595433683454
APRIZESAT 8             
1 39425U 13066K   26182.80430936  .00000903  00000+0  10370-3 0  9996
2 39425  97.8225 130.0689 0044552 236.8406 122.8533 14.87678035681844
BUGSAT-1 (TITA)         
1 40014U 14033E   26183.28667071  .00006874  00000+0  36046-3 0  9993
2 40014  98.0434 276.7201 0028933 127.9865 232.3986 15.15756312658128
SAUDISAT 4              
1 40016U 14033G   26183.26776243  .00000677  00000+0  95726-4 0  9991
2 40016  97.7602 328.8822 0045333  26.0457 334.3023 14.79563736648309
APRIZESAT 9             
1 40018U 14033J   26183.27561167  .00000899  00000+0  13892-3 0  9990
2 40018  97.9080 316.1068 0066836 150.7862 209.7111 14.74237412645787
APRIZESAT 10            
1 40019U 14033K   26183.29674402  .00000676  00000+0  11377-3 0  9999
2 40019  97.9669 309.9207 0077815 224.8206 134.6698 14.70898352644473
TECHDEMOSAT-1 (TDS-1)   
1 40076U 14037H   26183.23329560  .00009218  00000+0  51848-3 0  9990
2 40076  98.3814 176.9398 0005568 201.0644 159.0356 15.13519889650501
TECHNOSAT               
1 42829U 17042E   26183.00935972  .00002778  00000+0  19898-3 0  9995
2 42829  97.4294 340.1049 0018655  47.2309 313.0483 15.05043795488936
FLYING LAPTOP           
1 42831U 17042G   26183.31634347  .00003550  00000+0  27974-3 0  9997
2 42831  97.4757 338.2726 0019965  73.5736 286.7681 15.01242271488723
HAWK-A                  
1 43765U 18099H   26183.11436355  .00007973  00000+0  31905-3 0  9996
2 43765  97.3903 235.1565 0033499 230.7986 129.0277 15.24820457415374
HAWK-B                  
1 43794U 18099AN  26183.15374341  .00007431  00000+0  31515-3 0  9994
2 43794  97.3949 234.5790 0030379 249.4920 110.3055 15.22987319415318
HAWK-C                  
1 43799U 18099AT  26183.12246359  .00009289  00000+0  33191-3 0  9998
2 43799  97.3878 236.1506 0039130 230.7339 129.0427 15.28314740416193
SALSAT                  
1 46495U 20068K   26183.25417133  .00008637  00000+0  29987-3 0  9991
2 46495  97.8847 187.2381 0008037 243.7769 116.2645 15.30013367317666
HAWK-2C                 
1 47502U 21006CT  26183.01781306  .00007854  00000+0  23452-3 0  9995
2 47502  97.2266 227.0324 0008164 138.6133 221.5731 15.34845265301778
HAWK-2A                 
1 47505U 21006CW  26183.02016324  .00007854  00000+0  23445-3 0  9992
2 47505  97.2308 227.7213 0007607 141.4283 218.7506 15.34859675301779
HAWK-2B                 
1 47508U 21006CZ  26183.14512468  .00008660  00000+0  25730-3 0  9993
2 47508  97.2176 226.1517 0008206 139.6369 220.5485 15.34973205301790
HAWK-3B                 
1 48931U 21059BE  26183.10949967  .00049221  00000+0  39568-3 0  9998
2 48931  97.6640  21.2419 0003400 252.2511 107.8380 15.70827431280198
HAWK-3C                 
1 48948U 21059BX  26183.10917826  .00051354  00000+0  41275-3 0  9993
2 48948  97.6758  26.9528 0003557 255.0517 105.0351 15.70822629280191
HAWK-3A                 
1 48957U 21059CG  26183.10905972  .00052139  00000+0  41901-3 0  9990
2 48957  97.6705  24.1452 0003603 257.1371 102.9488 15.70822260280190
HAWK-5C                 
1 52754U 22057Y   26183.19926594  .00020912  00000+0  34974-3 0  9997
2 52754  97.6614 343.8404 0003927  33.3663 326.7835 15.51924680228679
HAWK-5B                 
1 52756U 22057AA  26182.94117565  .00021791  00000+0  36440-3 0  9997
2 52756  97.6624 341.9161 0004564  24.4564 335.6904 15.51917354228632
